CSS (TIANHE)            
1 48274U 21035A   23180.78205463  .00023513  00000+0  29147-3 0  9994
2 48274  41.4746  79.3943 0006753 178.6288 181.4570 15.59470082123800
